#aV2010  1 22  0  0   .00000000      96 DD+AD WGS84 FIT  NGA
## 1567 432000.00000000   900.00000000 55218  .0000000000000
+   32     1  2  3  4  5  6  7  8  9 10 11 12 13 14 15 16 17
+         18 19 20 21 22 23 24 25 26 27 28 29 30 31 32  0  0
+          0  0  0  0  0  0  0  0  0  0  0  0  0  0  0  0  0
+          0  0  0  0  0  0  0  0  0  0  0  0  0  0  0  0  0
+          0  0  0  0  0  0  0  0  0  0  0  0  0  0  0  0  0
++         0  0  0  0  0  0  0  0  0  0  0  0  0  0  0  0  0
++         0  0  0  0  0  0  0  0  0  0  0  0  0  0  0  0  0
++         0  0  0  0  0  0  0  0  0  0  0  0  0  0  0  0  0
++         0  0  0  0  0  0  0  0  0  0  0  0  0  0  0  0  0
++         0  0  0  0  0  0  0  0  0  0  0  0  0  0  0  0  0
%c cc cc ccc ccc cccc cccc cccc cccc ccccc ccccc ccccc ccccc
%c cc cc ccc ccc cccc cccc cccc cccc ccccc ccccc ccccc ccccc
%f  0.0000000  0.000000000  0.00000000000  0.000000000000000
%f  0.0000000  0.000000000  0.00000000000  0.000000000000000
%i    0    0    0    0      0      0      0      0         0
%i    0    0    0    0      0      0      0      0         0
/*      NGA, ST. LOUIS,MO.                                  
/*   EPHEMERIS COMPUTED FROM  3 DAYS OF DATA                
/* CCCCCCCCCCCCCCCCCCCCCCCCCCCCCCCCCCCCCCCCCCCCCCCCCCCCCCCCC
/* CCCCCCCCCCCCCCCCCCCCCCCCCCCCCCCCCCCCCCCCCCCCCCCCCCCCCCCCC
*  2010  1 22  6  0   .00000000                                                 
P  1  17575.956118  18770.402169   6848.606118    -81.719118                    
V  1   2611.497659   8766.098853 -30120.695359      -.034048                    
P  2 -14033.519007  13666.120968  17676.385680    218.225096                    
V  2 -22880.558849  -1025.322856 -17751.280564       .042296                    
P  3   9445.785225 -24618.737405    -42.647308    505.335994                    
V  3   3779.575091   1837.102558  31213.218001       .051973                    
P  4 -24739.955554   6470.071716   7673.972407   -469.909023                    
V  4  -9998.507988  -2668.467042 -28979.163445      -.192857                    
P  5  -2545.105147  19407.580964  17894.351292    -14.377686                    
V  5 -13601.117420 -18369.567601  18051.630844       .034751                    
P  6  13409.780210 -22614.848726   3485.465494    258.196480                    
V  6   1541.657702   5403.387260  30814.466486      -.032271                    
P  7 -22536.438383  -7467.829969  12060.480817      3.966095                    
V  7  15171.284143  -2540.983844  26607.158693      -.005685                    
P  8 -26838.514750   -835.052885     54.018740      2.417615                    
V  8    133.717146  -1396.614042  32064.290353       .003925                    
P  9   4731.057053  14693.378766 -22280.934568    101.438546                    
V  9 -26578.755937   2041.942163  -4388.659734       .022812                    
P 10  -7936.316428  14777.138888  20331.815468    -33.481294                    
V 10 -14510.784879 -22001.872987  10580.731671      -.009859                    
P 11 -10148.997216 -14304.790299 -20257.996836    -41.052509                    
V 11  24319.301792  -7551.622236  -6568.384309      -.020915                    
P 12  10942.116483  23821.737232  -4657.412630   -159.942574                    
V 12  -5149.445961  -3822.207130 -31130.668881       .048948                    
P 13 -11425.095478  -8911.804953  22130.307878    306.661836                    
V 13  14929.227294 -24069.110418  -1986.046301      -.000339                    
P 14  18189.796416  -8792.252234 -17038.719059      2.899251                    
V 14  -9888.721370  19580.751744 -20609.812677       .044237                    
P 15  -5656.052103  24446.216566  -8521.315755   -311.958752                    
V 15  -7476.638148   8421.639932  29137.722374       .023357                    
P 16   8547.213678 -13783.283749  21030.586980    -33.176101                    
V 16  14289.657752  22472.397390   9192.517064      -.040913                    
P 17 -18436.753859  10060.637448 -16050.904082    123.253567                    
V 17   8205.850229 -19026.412679 -21448.066377       .032451                    
P 18  18798.013668  14615.395055 -11888.864153     43.579137                    
V 18   5530.851272  14627.895398  25797.163982       .026728                    
P 19   6187.068041 -23487.576486 -10364.430594    -11.026578                    
V 19   9460.085776  -9777.522425  27991.486448      -.022245                    
P 20 -14033.896661 -22562.132286  -1209.549182     62.842348                    
V 20   3639.278975   -775.525251 -31171.834290      -.007881                    
P 21  25238.385589   5287.264646   7902.969618    -35.584038                    
V 21  -9441.289992   3093.323837  28570.583528      -.024594                    
P 22  17808.656118   2074.032592 -19458.891054    180.974706                    
V 22  11458.131814  22399.117781  12691.915526      -.007042                    
P 23  -4317.503634 -18562.383734  18343.751079    381.789956                    
V 23  12474.142249 -19901.007412 -17471.263440      -.008894                    
P 24  15209.054927  12807.247233  17594.137188    255.857716                    
V 24 -22300.152170   1667.900653  18405.573147       .032643                    
P 25 -17363.080702  -9929.908187  17719.423049     84.334416                    
V 25  21492.229153  -4303.532930  19213.618598       .077202                    
P 26  16195.897994    674.806766 -21678.761927    -11.643999                    
V 26 -13399.422189  22370.232935  -9107.159975      -.031698                    
P 27   1571.972332  14457.158904 -21534.871995    119.289761                    
V 27 -28860.151950   2655.521518   -221.373544       .033792                    
P 28 -17918.057099  -5589.396859 -18451.241522    -23.294228                    
V 28 -11094.202428 -21619.762133  16604.734291       .005908                    
P 29   9758.950283  12848.186980  21195.785291     91.857312                    
V 29 -13717.916396  22911.602036  -7570.081262       .030138                    
P 30  17248.948379  19702.553836   4235.555991    212.775048                    
V 30    895.224758   6495.545821 -30974.417112       .033085                    
P 31  23283.981408  -7930.608705  10442.826738    -54.471714                    
V 31  12926.653652   1432.065507 -28169.436809       .014816                    
P 32  -6137.523981 -24537.317940  -8255.767867    111.767739                    
V 32   7147.894355   8569.766302 -29184.735036      -.080896                    
EOF
